[
    {
        "Altitude(m)": 709000.0603468962,
        "Argument of Periapsis(deg)": 0.0,
        "Eccentricity": 0.0,
        "Inclination(deg)": 45.0,
        "Latitude(deg)": -22.638602058587594,
        "Longitude(deg)": 64.53826814324295,
        "Mean Anomaly(deg)": -147.2727,
        "RAAN(deg)": 320.0,
        "Satellite Name": "Constellation 1 1421",
        "Satellite Number": 1421,
        "Semi-Major Axis(m)": 7083131.272910544,
        "Time(s)": 0
    },
    {
        "Altitude(m)": 709013.6148476586,
        "Argument of Periapsis(deg)": 5.994800624540561e-05,
        "Eccentricity": 0.0,
        "Inclination(deg)": 45.0,
        "Latitude(deg)": -22.67781160088291,
        "Longitude(deg)": 64.58437353694015,
        "Mean Anomaly(deg)": -147.21199885975014,
        "RAAN(deg)": 319.9999434108344,
        "Satellite Name": "Constellation 1 1421",
        "Satellite Number": 1421,
        "Semi-Major Axis(m)": 7083131.272910544,
        "Time(s)": 1
    },
    {
        "Altitude(m)": 709027.1745211186,
        "Argument of Periapsis(deg)": 0.00011989601249081122,
        "Eccentricity": 0.0,
        "Inclination(deg)": 45.0,
        "Latitude(deg)": -22.717005109628413,
        "Longitude(deg)": 64.63050735018142,
        "Mean Anomaly(deg)": -147.1512977195002,
        "RAAN(deg)": 319.9998868216689,
        "Satellite Name": "Constellation 1 1421",
        "Satellite Number": 1421,
        "Semi-Major Axis(m)": 7083131.272910544,
        "Time(s)": 2
    },
    {
        "Altitude(m)": 709040.7393220649,
        "Argument of Periapsis(deg)": 0.00017984401873621686,
        "Eccentricity": 0.0,
        "Inclination(deg)": 45.0,
        "Latitude(deg)": -22.756182545679792,
        "Longitude(deg)": 64.67666964237235,
        "Mean Anomaly(deg)": -147.09059657925027,
        "RAAN(deg)": 319.99983023250326,
        "Satellite Name": "Constellation 1 1421",
        "Satellite Number": 1421,
        "Semi-Major Axis(m)": 7083131.272910544,
        "Time(s)": 3
    },
    {
        "Altitude(m)": 709054.3092052464,
        "Argument of Periapsis(deg)": 0.00023979202498162244,
        "Eccentricity": 0.0,
        "Inclination(deg)": 45.0,
        "Latitude(deg)": -22.795343869837236,
        "Longitude(deg)": 64.72286047293753,
        "Mean Anomaly(deg)": -147.02989543900043,
        "RAAN(deg)": 319.9997736433377,
        "Satellite Name": "Constellation 1 1421",
        "Satellite Number": 1421,
        "Semi-Major Axis(m)": 7083131.272910544,
        "Time(s)": 4
    },
    {
        "Altitude(m)": 709067.8841253879,
        "Argument of Periapsis(deg)": 0.00029974003122702807,
        "Eccentricity": 0.0,
        "Inclination(deg)": 45.0,
        "Latitude(deg)": -22.83448904284535,
        "Longitude(deg)": 64.76907990132005,
        "Mean Anomaly(deg)": -146.9691942987505,
        "RAAN(deg)": 319.99971705417215,
        "Satellite Name": "Constellation 1 1421",
        "Satellite Number": 1421,
        "Semi-Major Axis(m)": 7083131.272910544,
        "Time(s)": 5
    },
    {
        "Altitude(m)": 709081.4640371717,
        "Argument of Periapsis(deg)": 0.00035968803747243373,
        "Eccentricity": 0.0,
        "Inclination(deg)": 45.0,
        "Latitude(deg)": -22.873618025392872,
        "Longitude(deg)": 64.81532798698132,
        "Mean Anomaly(deg)": -146.90849315850056,
        "RAAN(deg)": 319.99966046500657,
        "Satellite Name": "Constellation 1 1421",
        "Satellite Number": 1421,
        "Semi-Major Axis(m)": 7083131.272910544,
        "Time(s)": 6
    },
    {
        "Altitude(m)": 709095.0488952547,
        "Argument of Periapsis(deg)": 0.00041963604371783933,
        "Eccentricity": 0.0,
        "Inclination(deg)": 45.0,
        "Latitude(deg)": -22.912730778112778,
        "Longitude(deg)": 64.86160462130391,
        "Mean Anomaly(deg)": -146.8477920182507,
        "RAAN(deg)": 319.99960387584105,
        "Satellite Name": "Constellation 1 1421",
        "Satellite Number": 1421,
        "Semi-Major Axis(m)": 7083131.272910544,
        "Time(s)": 7
    },
    {
        "Altitude(m)": 709108.6386542531,
        "Argument of Periapsis(deg)": 0.0004795840499632449,
        "Eccentricity": 0.0,
        "Inclination(deg)": 45.0,
        "Latitude(deg)": -22.951827261581688,
        "Longitude(deg)": 64.90791019997928,
        "Mean Anomaly(deg)": -146.7870908780008,
        "RAAN(deg)": 319.9995472866754,
        "Satellite Name": "Constellation 1 1421",
        "Satellite Number": 1421,
        "Semi-Major Axis(m)": 7083131.272910544,
        "Time(s)": 8
    },
    {
        "Altitude(m)": 709122.2332687705,
        "Argument of Periapsis(deg)": 0.0005395320562086505,
        "Eccentricity": 0.0,
        "Inclination(deg)": 45.0,
        "Latitude(deg)": -22.990907436320498,
        "Longitude(deg)": 64.9542446144261,
        "Mean Anomaly(deg)": -146.72638973775094,
        "RAAN(deg)": 319.9994906975098,
        "Satellite Name": "Constellation 1 1421",
        "Satellite Number": 1421,
        "Semi-Major Axis(m)": 7083131.272910544,
        "Time(s)": 9
    },
    {
        "Altitude(m)": 709135.8326933553,
        "Argument of Periapsis(deg)": 0.0005994800624540561,
        "Eccentricity": 0.0,
        "Inclination(deg)": 45.0,
        "Latitude(deg)": -23.02997126279387,
        "Longitude(deg)": 65.00060792417747,
        "Mean Anomaly(deg)": -146.66568859750097,
        "RAAN(deg)": 319.9994341083443,
        "Satellite Name": "Constellation 1 1421",
        "Satellite Number": 1421,
        "Semi-Major Axis(m)": 7083131.272910544,
        "Time(s)": 10
    },
    {
        "Altitude(m)": 709149.4368825355,
        "Argument of Periapsis(deg)": 0.0006594280686994618,
        "Eccentricity": 0.0,
        "Inclination(deg)": 45.0,
        "Latitude(deg)": -23.069018701409917,
        "Longitude(deg)": 65.04700018878371,
        "Mean Anomaly(deg)": -146.60498745725113,
        "RAAN(deg)": 319.9993775191787,
        "Satellite Name": "Constellation 1 1421",
        "Satellite Number": 1421,
        "Semi-Major Axis(m)": 7083131.272910544,
        "Time(s)": 11
    },
    {
        "Altitude(m)": 709163.0457908052,
        "Argument of Periapsis(deg)": 0.0007193760749448675,
        "Eccentricity": 0.0,
        "Inclination(deg)": 45.0,
        "Latitude(deg)": -23.108049712520565,
        "Longitude(deg)": 65.09342146781282,
        "Mean Anomaly(deg)": -146.54428631700117,
        "RAAN(deg)": 319.9993209300132,
        "Satellite Name": "Constellation 1 1421",
        "Satellite Number": 1421,
        "Semi-Major Axis(m)": 7083131.272910544,
        "Time(s)": 12
    },
    {
        "Altitude(m)": 709176.6593726305,
        "Argument of Periapsis(deg)": 0.000779324081190273,
        "Eccentricity": 0.0,
        "Inclination(deg)": 45.0,
        "Latitude(deg)": -23.14706425642096,
        "Longitude(deg)": 65.13987182084952,
        "Mean Anomaly(deg)": -146.48358517675135,
        "RAAN(deg)": 319.9992643408476,
        "Satellite Name": "Constellation 1 1421",
        "Satellite Number": 1421,
        "Semi-Major Axis(m)": 7083131.272910544,
        "Time(s)": 13
    },
    {
        "Altitude(m)": 709190.2775824418,
        "Argument of Periapsis(deg)": 0.0008392720874356787,
        "Eccentricity": 0.0,
        "Inclination(deg)": 45.0,
        "Latitude(deg)": -23.18606229334978,
        "Longitude(deg)": 65.18635130749566,
        "Mean Anomaly(deg)": -146.42288403650144,
        "RAAN(deg)": 319.999207751682,
        "Satellite Name": "Constellation 1 1421",
        "Satellite Number": 1421,
        "Semi-Major Axis(m)": 7083131.272910544,
        "Time(s)": 14
    },
    {
        "Altitude(m)": 709203.9003746416,
        "Argument of Periapsis(deg)": 0.0008992200936810842,
        "Eccentricity": 0.0,
        "Inclination(deg)": 45.0,
        "Latitude(deg)": -23.22504378348903,
        "Longitude(deg)": 65.23285981927275,
        "Mean Anomaly(deg)": -146.3621828962515,
        "RAAN(deg)": 319.99915116251645,
        "Satellite Name": "Constellation 1 1421",
        "Satellite Number": 1421,
        "Semi-Major Axis(m)": 7083131.272910544,
        "Time(s)": 15
    },
    {
        "Altitude(m)": 709217.5277035969,
        "Argument of Periapsis(deg)": 0.0009591680999264898,
        "Eccentricity": 0.0,
        "Inclination(deg)": 45.0,
        "Latitude(deg)": -23.26400868696328,
        "Longitude(deg)": 65.27939775200947,
        "Mean Anomaly(deg)": -146.30148175600164,
        "RAAN(deg)": 319.9990945733509,
        "Satellite Name": "Constellation 1 1421",
        "Satellite Number": 1421,
        "Semi-Major Axis(m)": 7083131.272910544,
        "Time(s)": 16
    },
    {
        "Altitude(m)": 709231.159523652,
        "Argument of Periapsis(deg)": 0.0010191161061718953,
        "Eccentricity": 0.0,
        "Inclination(deg)": 45.0,
        "Latitude(deg)": -23.30295696384074,
        "Longitude(deg)": 65.32596499726014,
        "Mean Anomaly(deg)": -146.2407806157517,
        "RAAN(deg)": 319.99903798418535,
        "Satellite Name": "Constellation 1 1421",
        "Satellite Number": 1421,
        "Semi-Major Axis(m)": 7083131.272910544,
        "Time(s)": 17
    },
    {
        "Altitude(m)": 709244.7957891127,
        "Argument of Periapsis(deg)": 0.001079064112417301,
        "Eccentricity": 0.0,
        "Inclination(deg)": 45.0,
        "Latitude(deg)": -23.341888574132202,
        "Longitude(deg)": 65.37256161469207,
        "Mean Anomaly(deg)": -146.18007947550183,
        "RAAN(deg)": 319.99898139501977,
        "Satellite Name": "Constellation 1 1421",
        "Satellite Number": 1421,
        "Semi-Major Axis(m)": 7083131.272910544,
        "Time(s)": 18
    }
]